TJS-12                  
1 62374U 24246A   26155.16634131 -.00000218  00000+0  00000+0 0  9994
2 62374   0.6996 297.9089 0002407  89.7243  71.4058  1.00274094  5438
NUVIEW ALPHA            
1 62455U 24252B   26155.17683514 -.00000204  00000+0  00000+0 0  9996
2 62455   0.0580  33.9578 0001110  13.7948 185.4553  1.00272110  3690
AGILA                   
1 62456U 24252C   26154.88222921 -.00000170  00000+0  00000+0 0  9997
2 62456   0.0477 136.5808 0001135 314.9874 270.5252  1.00270514  5020
NUVIEW BRAVO            
1 62457U 24252D   26154.47916912 -.00000203  00000+0  00000+0 0  9990
2 62457   0.0753 137.8768 0001996 335.8772 227.5746  1.00270889  3653
THURAYA-4               
1 62483U 25001A   26155.22891902  .00000151  00000+0  00000+0 0  9998
2 62483   0.0279  64.2599 0000203  41.4223 273.7272  1.00272936  4047
SHIJIAN-25 (SJ-25)      
1 62485U 25002A   26154.73046222 -.00000339  00000+0  00000+0 0  9992
2 62485   5.0812  61.2456 0051546 172.8146  48.3391  1.00281646  5222
TJS-14                  
1 62804U 25017A   26155.14094786  .00000127  00000+0  00000+0 0  9991
2 62804   0.8127 294.7099 0000505 271.6919 115.3105  1.00269870  5144
SPAINSAT NG I           
1 62852U 25021A   26155.14302787  .00000163  00000+0  00000+0 0  9992
2 62852   0.0167 329.7714 0000212 115.8748 247.4441  1.00271232  3851
QZS-6 (MICHIBIKI-6)     
1 62876U 25023A   26155.17525036 -.00000220  00000+0  00000+0 0  9992
2 62876   0.0196  27.3438 0002593  49.4967 329.3335  1.00268643  4813
ZHONGXING-10R           
1 63075U 25036A   26155.08791670 -.00000340  00000+0  00000+0 0  9990
2 63075   0.0526 254.1919 0003304 244.4420 256.0983  1.00272552  4828
TJS-15                  
1 63157U 25045A   26154.73236772 -.00000253  00000+0  00000+0 0  9992
2 63157   0.2813  85.2729 0005568 299.9874 224.9861  1.00270021  4620
TIANLIAN 2-04           
1 63361U 25062A   26154.93926664 -.00000123  00000+0  00000+0 0  9992
2 63361   4.4090 274.6299 0031424  10.9091  25.0606  1.00270749  4475
TJS-16                  
1 63397U 25064A   26154.66338115 -.00000093  00000+0  00000+0 0  9997
2 63397   1.0632  81.5310 0003818 294.0276 275.9734  1.00272690  4255
TJS-17                  
1 63524U 25073A   26154.67086645 -.00000058  00000+0  00000+0 0  9999
2 63524   1.0290  82.8055 0002604 301.6214 273.7230  1.00272521  4155
TIANLIAN 2-05           
1 63662U 25084A   26155.14129454  .00000136  00000+0  00000+0 0  9999
2 63662   4.4847 279.9832 0003689 143.9727 259.9122  1.00273536  4259
TJS-19                  
1 63924U 25097A   26154.73757059 -.00000264  00000+0  00000+0 0  9999
2 63924   3.3094 317.2183 0001784 231.8983 109.9058  1.00271334  4001
CHINASAT 3B             
1 64062U 25106A   26153.67325432 -.00000033  00000+0  00000+0 0  9996
2 64062   0.0342  84.7176 0002846  22.8897 193.2201  1.00271300  3913
SXM-10                  
1 64290U 25122A   26155.23725381 -.00000005  00000+0  00000+0 0  9997
2 64290   0.0228  28.8747 0001857 350.0565 202.9979  1.00270886  3559
COSMOS 2589             
1 64467U 25131A   26154.76586953 -.00000279  00000+0  00000+0 0  9993
2 64467   0.0530  63.9284 0001603  88.0699 113.9489  1.00270027  3422
CHINASAT 9C             
1 64470U 25132A   26155.17525036 -.00000235  00000+0  00000+0 0  9991
2 64470   0.0363 262.0422 0003139 176.7951 329.0755  1.00270103  4015
MTG-S1                  
1 64723U 25143A   26155.20790095 -.00000020  00000+0  00000+0 0  9999
2 64723   0.6149 336.1165 0001211  38.2217 309.6895  1.00271575  3288
DROR 1                  
1 64784U 25148A   26155.20781428 -.00000022  00000+0  00000+0 0  9993
2 64784   0.0090 348.1561 0003101  43.3197 291.9893  1.00271715  3165
SHIYAN-29               
1 65486U 25196A   26155.08453669 -.00000261  00000+0  00000+0 0  9990
2 65486  28.8073  18.7023 0010580 170.5717 188.0637  1.00258723  2746
NUSANTARA LIMA (NUSANT*)
1 65588U 25205A   26155.08835003 -.00000345  00000+0  00000+0 0  9993
2 65588   0.0356 128.2375 0000548 327.8812 301.0781  1.00270345  2581
TJS-20                  
1 66142U 25238A   26155.00253167  .00000036  00000+0  00000+0 0  9999
2 66142   5.4995 299.6044 0004848 152.9306 223.2103  1.00271871  2201
CMS-03 (GSAT-7R)        
1 66311U 25249B   26155.21780821 -.00000065  00000+0  00000+0 0  9997
2 66311   0.0350 261.5544 0002878 141.3659   2.1410  1.00272567  2211
VIASAT-3 F2             
1 66454U 25261A   26155.17683514 -.00000221  00000+0  00000+0 0  9999
2 66454   0.0479 148.2484 0000207 318.3380 130.7018  1.00271467  2665
SHIJIAN-28 (SJ-28)      
1 66549U 25277A   26155.30306584 -.00000348  00000+0  00000+0 0  9995
2 66549   4.5720 272.3378 0000358   9.0459 197.3850  1.00270707  2026
TJS-22                  
1 66990U 25290A   26154.91158021  .00000006  00000+0  00000+0 0  9997
2 66990   1.5604 286.3994 0002037 334.3933  26.1864  1.00271402  1891
TJS-23                  
1 67226U 25306A   26154.63920536  .00000028  00000+0  00000+0 0  9999
2 67226   5.6184 297.5604 0004947 162.5965 197.5216  1.00272079  1752
FENGYUN 4C              
1 67246U 25312A   26155.02108771 -.00000311  00000+0  00000+0 0  9997
2 67246   0.0142  93.6132 0000672  66.0667 233.3855  1.00270825  1649
SHIJIAN-29A (SJ-29A)    
1 67302U 25315A   26155.21780821 -.00000056  00000+0  00000+0 0  9992
2 67302   3.3645  95.4306 0003390  18.1949 290.7217  1.00270280  1486
